start=new Date('2022-12-13T00:00:00.000Z').valueOf();
sats=[{"CENTER_NAME":"EARTH","TLE_LINE2":"2 48390  53.0545 251.4758 0001634  67.6895 292.4267 15.06402730 90240","ELEMENT_SET_NO":"999","MEAN_MOTION":"15.06402730","INCLINATION":"53.0545","PERIAPSIS":"546.074","ARG_OF_PERICENTER":"67.6895","MEAN_MOTION_DDOT":"0.0000000000000","TIME_SYSTEM":"UTC","REF_FRAME":"TEME","BSTAR":"0.00019201000000","SEMIMAJOR_AXIS":"6925.340","ECCENTRICITY":"0.00016340","REV_AT_EPOCH":"9024","RA_OF_ASC_NODE":"251.4758","PERIOD":"95.592","MEAN_ANOMALY":"292.4267","MEAN_MOTION_DOT":"0.00002580","COUNTRY_CODE":"US","FILE":"3695286","NORAD_CAT_ID":"48390","OBJECT_NAME":"STARLINK-2586","LAUNCH_DATE":"2021-05-04","OBJECT_ID":"2021-038AP","EPHEMERIS_TYPE":"0","SITE":"AFETR","RCS_SIZE":"LARGE","EPOCH":"2022-12-12T21:04:42.898656","OBJECT_TYPE":"PAYLOAD","APOAPSIS":"548.337","CLASSIFICATION_TYPE":"U","GP_ID":"220207262","MEAN_ELEMENT_THEORY":"SGP4","DECAY_DATE":null,"TLE_LINE1":"1 48390U 21038AP  22346.87827429  .00002580  00000-0  19201-3 0  9993"},{"ELEMENT_SET_NO":"999","TLE_LINE2":"2 48391  53.0519 251.4942 0001634  53.9608 306.1532 15.06401664 90240","CENTER_NAME":"EARTH","ARG_OF_PERICENTER":"53.9608","PERIAPSIS":"546.077","INCLINATION":"53.0519","MEAN_MOTION":"15.06401664","TIME_SYSTEM":"UTC","MEAN_MOTION_DDOT":"0.0000000000000","BSTAR":"0.00007331800000","REF_FRAME":"TEME","REV_AT_EPOCH":"9024","ECCENTRICITY":"0.00016340","SEMIMAJOR_AXIS":"6925.343","RA_OF_ASC_NODE":"251.4942","MEAN_MOTION_DOT":"0.00000811","MEAN_ANOMALY":"306.1532","PERIOD":"95.592","COUNTRY_CODE":"US","OBJECT_NAME":"STARLINK-2607","LAUNCH_DATE":"2021-05-04","NORAD_CAT_ID":"48391","FILE":"3695286","OBJECT_ID":"2021-038AQ","RCS_SIZE":"LARGE","SITE":"AFETR","EPHEMERIS_TYPE":"0","APOAPSIS":"548.340","EPOCH":"2022-12-12T20:59:24.343584","OBJECT_TYPE":"PAYLOAD","GP_ID":"220207512","CLASSIFICATION_TYPE":"U","DECAY_DATE":null,"MEAN_ELEMENT_THEORY":"SGP4","TLE_LINE1":"1 48391U 21038AQ  22346.87458731  .00000811  00000-0  73318-4 0  9995"},{"OBJECT_ID":"2021-038AR","EPHEMERIS_TYPE":"0","SITE":"AFETR","RCS_SIZE":"LARGE","NORAD_CAT_ID":"48392","FILE":"3694761","LAUNCH_DATE":"2021-05-04","OBJECT_NAME":"STARLINK-2605","MEAN_ELEMENT_THEORY":"SGP4","DECAY_DATE":null,"TLE_LINE1":"1 48392U 21038AR  22346.73820729  .00004227  00000-0  30240-3 0  9992","EPOCH":"2022-12-12T17:43:01.109856","OBJECT_TYPE":"PAYLOAD","APOAPSIS":"548.210","CLASSIFICATION_TYPE":"U","GP_ID":"220184545","MEAN_MOTION_DDOT":"0.0000000000000","TIME_SYSTEM":"UTC","REF_FRAME":"TEME","BSTAR":"0.00030240000000","CENTER_NAME":"EARTH","TLE_LINE2":"2 48392  53.0522 252.0955 0001475  94.0790 266.0368 15.06408195 89590","ELEMENT_SET_NO":"999","MEAN_MOTION":"15.06408195","INCLINATION":"53.0522","PERIAPSIS":"546.167","ARG_OF_PERICENTER":"94.0790","PERIOD":"95.592","MEAN_ANOMALY":"266.0368","MEAN_MOTION_DOT":"0.00004227","COUNTRY_CODE":"US","SEMIMAJOR_AXIS":"6925.323","ECCENTRICITY":"0.00014750","REV_AT_EPOCH":"8959","RA_OF_ASC_NODE":"252.0955"},{"ELEMENT_SET_NO":"999","CENTER_NAME":"EARTH","TLE_LINE2":"2 48393  53.0532 252.1084 0001917  54.0019 306.1147 15.06395969 90224","PERIAPSIS":"545.898","ARG_OF_PERICENTER":"54.0019","INCLINATION":"53.0532","MEAN_MOTION":"15.06395969","MEAN_MOTION_DDOT":"0.0000000000000","TIME_SYSTEM":"UTC","REF_FRAME":"TEME","BSTAR":"-0.00000333820000","ECCENTRICITY":"0.00019170","REV_AT_EPOCH":"9022","SEMIMAJOR_AXIS":"6925.361","RA_OF_ASC_NODE":"252.1084","MEAN_MOTION_DOT":"-0.00000331","PERIOD":"95.592","MEAN_ANOMALY":"306.1147","COUNTRY_CODE":"US","OBJECT_NAME":"STARLINK-2602","LAUNCH_DATE":"2021-05-04","FILE":"3695286","NORAD_CAT_ID":"48393","OBJECT_ID":"2021-038AS","SITE":"AFETR","RCS_SIZE":"LARGE","EPHEMERIS_TYPE":"0","APOAPSIS":"548.554","EPOCH":"2022-12-12T17:37:42.346560","OBJECT_TYPE":"PAYLOAD","CLASSIFICATION_TYPE":"U","GP_ID":"220208512","DECAY_DATE":null,"MEAN_ELEMENT_THEORY":"SGP4","TLE_LINE1":"1 48393U 21038AS  22346.73451790 -.00000331  00000-0 -33382-5 0  9997"},{"PERIOD":"95.592","MEAN_ANOMALY":"302.9450","MEAN_MOTION_DOT":"0.00002778","COUNTRY_CODE":"US","SEMIMAJOR_AXIS":"6925.355","ECCENTRICITY":"0.00018120","REV_AT_EPOCH":"9022","RA_OF_ASC_NODE":"252.1292","MEAN_MOTION_DDOT":"0.0000000000000","TIME_SYSTEM":"UTC","REF_FRAME":"TEME","BSTAR":"0.00020536000000","CENTER_NAME":"EARTH","TLE_LINE2":"2 48394  53.0523 252.1292 0001812  57.1713 302.9450 15.06398021 90228","ELEMENT_SET_NO":"999","MEAN_MOTION":"15.06398021","PERIAPSIS":"545.965","ARG_OF_PERICENTER":"57.1713","INCLINATION":"53.0523","MEAN_ELEMENT_THEORY":"SGP4","DECAY_DATE":null,"TLE_LINE1":"1 48394U 21038AT  22346.73083740  .00002778  00000-0  20536-3 0  9994","OBJECT_TYPE":"PAYLOAD","EPOCH":"2022-12-12T17:32:24.351360","APOAPSIS":"548.474","CLASSIFICATION_TYPE":"U","GP_ID":"220206764","OBJECT_ID":"2021-038AT","EPHEMERIS_TYPE":"0","SITE":"AFETR","RCS_SIZE":"LARGE","NORAD_CAT_ID":"48394","FILE":"3695286","LAUNCH_DATE":"2021-05-04","OBJECT_NAME":"STARLINK-2573"},{"TLE_LINE2":"2 48395  53.0532 255.2385 0001685  68.0941 292.0227 15.06393583 90137","CENTER_NAME":"EARTH","ELEMENT_SET_NO":"999","MEAN_MOTION":"15.06393583","ARG_OF_PERICENTER":"68.0941","PERIAPSIS":"546.066","INCLINATION":"53.0532","TIME_SYSTEM":"UTC","MEAN_MOTION_DDOT":"0.0000000000000","BSTAR":"0.00037702000000","REF_FRAME":"TEME","SEMIMAJOR_AXIS":"6925.368","REV_AT_EPOCH":"9013","ECCENTRICITY":"0.00016850","RA_OF_ASC_NODE":"255.2385","MEAN_ANOMALY":"292.0227","PERIOD":"95.593","MEAN_MOTION_DOT":"0.00005338","COUNTRY_CODE":"US","NORAD_CAT_ID":"48395","FILE":"3694071","OBJECT_NAME":"STARLINK-2574","LAUNCH_DATE":"2021-05-04","OBJECT_ID":"2021-038AU","EPHEMERIS_TYPE":"0","RCS_SIZE":"LARGE","SITE":"AFETR","OBJECT_TYPE":"PAYLOAD","EPOCH":"2022-12-12T04:16:21.893088","APOAPSIS":"548.400","GP_ID":"220168164","CLASSIFICATION_TYPE":"U","MEAN_ELEMENT_THEORY":"SGP4","DECAY_DATE":null,"TLE_LINE1":"1 48395U 21038AU  22346.17803117  .00005338  00000-0  37702-3 0  9999"},{"TIME_SYSTEM":"UTC","MEAN_MOTION_DDOT":"0.0000000000000","BSTAR":"0.00007902200000","REF_FRAME":"TEME","TLE_LINE2":"2 48396  53.0563 254.8357 0001624  73.9688 286.1480 15.06389043 90133","CENTER_NAME":"EARTH","ELEMENT_SET_NO":"999","MEAN_MOTION":"15.06389043","PERIAPSIS":"546.122","ARG_OF_PERICENTER":"73.9688","INCLINATION":"53.0563","MEAN_ANOMALY":"286.1480","PERIOD":"95.593","MEAN_MOTION_DOT":"0.00000895","COUNTRY_CODE":"US","SEMIMAJOR_AXIS":"6925.382","REV_AT_EPOCH":"9013","ECCENTRICITY":"0.00016240","RA_OF_ASC_NODE":"254.8357","OBJECT_ID":"2021-038AV","EPHEMERIS_TYPE":"0","RCS_SIZE":"LARGE","SITE":"AFETR","FILE":"3694071","NORAD_CAT_ID":"48396","OBJECT_NAME":"STARLINK-2575","LAUNCH_DATE":"2021-05-04","MEAN_ELEMENT_THEORY":"SGP4","DECAY_DATE":null,"TLE_LINE1":"1 48396U 21038AV  22346.13003446  .00000895  00000-0  79022-4 0  9998","EPOCH":"2022-12-12T03:07:14.977344","OBJECT_TYPE":"PAYLOAD","APOAPSIS":"548.372","GP_ID":"220167914","CLASSIFICATION_TYPE":"U"},{"COUNTRY_CODE":"US","MEAN_MOTION_DOT":"0.00003356","PERIOD":"95.592","MEAN_ANOMALY":"289.8318","RA_OF_ASC_NODE":"254.8478","ECCENTRICITY":"0.00015800","REV_AT_EPOCH":"9013","SEMIMAJOR_AXIS":"6925.363","REF_FRAME":"TEME","BSTAR":"0.00024411000000","MEAN_MOTION_DDOT":"0.0000000000000","TIME_SYSTEM":"UTC","ARG_OF_PERICENTER":"70.2842","PERIAPSIS":"546.134","INCLINATION":"53.0532","MEAN_MOTION":"15.06395354","ELEMENT_SET_NO":"999","CENTER_NAME":"EARTH","TLE_LINE2":"2 48397  53.0532 254.8478 0001580  70.2842 289.8318 15.06395354 90139","TLE_LINE1":"1 48397U 21038AW  22346.12634927  .00003356  00000-0  24411-3 0  9998","DECAY_DATE":null,"MEAN_ELEMENT_THEORY":"SGP4","CLASSIFICATION_TYPE":"U","GP_ID":"220169160","APOAPSIS":"548.322","OBJECT_TYPE":"PAYLOAD","EPOCH":"2022-12-12T03:01:56.576928","SITE":"AFETR","RCS_SIZE":"LARGE","EPHEMERIS_TYPE":"0","OBJECT_ID":"2021-038AW","LAUNCH_DATE":"2021-05-04","OBJECT_NAME":"STARLINK-2590","NORAD_CAT_ID":"48397","FILE":"3694071"},{"APOAPSIS":"548.249","EPOCH":"2022-12-12T04:32:09.685536","OBJECT_TYPE":"PAYLOAD","CLASSIFICATION_TYPE":"U","GP_ID":"220168904","DECAY_DATE":null,"MEAN_ELEMENT_THEORY":"SGP4","TLE_LINE1":"1 48398U 21038AX  22346.18900099  .00003129  00000-0  22892-3 0  9990","OBJECT_NAME":"STARLINK-2588","LAUNCH_DATE":"2021-05-04","NORAD_CAT_ID":"48398","FILE":"3694071","OBJECT_ID":"2021-038AX","SITE":"AFETR","RCS_SIZE":"LARGE","EPHEMERIS_TYPE":"0","ECCENTRICITY":"0.00014740","REV_AT_EPOCH":"9014","SEMIMAJOR_AXIS":"6925.363","RA_OF_ASC_NODE":"254.5660","MEAN_MOTION_DOT":"0.00003129","PERIOD":"95.592","MEAN_ANOMALY":"295.4314","COUNTRY_CODE":"US","ELEMENT_SET_NO":"999","CENTER_NAME":"EARTH","TLE_LINE2":"2 48398  53.0562 254.5660 0001474  64.6828 295.4314 15.06395132 90140","ARG_OF_PERICENTER":"64.6828","PERIAPSIS":"546.208","INCLINATION":"53.0562","MEAN_MOTION":"15.06395132","MEAN_MOTION_DDOT":"0.0000000000000","TIME_SYSTEM":"UTC","REF_FRAME":"TEME","BSTAR":"0.00022892000000"},{"SEMIMAJOR_AXIS":"6925.243","ECCENTRICITY":"0.00014700","REV_AT_EPOCH":"9012","RA_OF_ASC_NODE":"254.8738","PERIOD":"95.590","MEAN_ANOMALY":"320.6119","MEAN_MOTION_DOT":"-0.00006673","COUNTRY_CODE":"US","CENTER_NAME":"EARTH","TLE_LINE2":"2 48399  53.0549 254.8738 0001470  39.4977 320.6119 15.06434538 90122","ELEMENT_SET_NO":"999","MEAN_MOTION":"15.06434538","INCLINATION":"53.0549","PERIAPSIS":"546.090","ARG_OF_PERICENTER":"39.4977","MEAN_MOTION_DDOT":"0.0000000000000","TIME_SYSTEM":"UTC","REF_FRAME":"TEME","BSTAR":"-0.00042911000000","OBJECT_TYPE":"PAYLOAD","EPOCH":"2022-12-12T02:51:17.764704","APOAPSIS":"548.126","CLASSIFICATION_TYPE":"U","GP_ID":"220167664","MEAN_ELEMENT_THEORY":"SGP4","DECAY_DATE":null,"TLE_LINE1":"1 48399U 21038AY  22346.11895561 -.00006673  00000-0 -42911-3 0  9994","FILE":"3694071","NORAD_CAT_ID":"48399","LAUNCH_DATE":"2021-05-04","OBJECT_NAME":"STARLINK-2587","OBJECT_ID":"2021-038AY","EPHEMERIS_TYPE":"0","SITE":"AFETR","RCS_SIZE":"LARGE"}];
